[{"OBJECT_NAME":"STARLINK-36699","OBJECT_ID":"2026-022E","EPOCH":"2026-03-09T15:48:10.776384","MEAN_MOTION":15.7518064,"ECCENTRICITY":0.00022042,"INCLINATION":97.2834,"RA_OF_ASC_NODE":102.6284,"ARG_OF_PERICENTER":94.939,"MEAN_ANOMALY":265.2127,"EPHEMERIS_TYPE":0,"CLASSIFICATION_TYPE":"U","NORAD_CAT_ID":67652,"ELEMENT_SET_NO":999,"REV_AT_EPOCH":554,"BSTAR":0.0013636753,"MEAN_MOTION_DOT":0.00208231,"MEAN_MOTION_DDOT":0},{"OBJECT_NAME":"CZ-2F R\/B","OBJECT_ID":"2026-024B","EPOCH":"2026-03-09T21:33:36.475776","MEAN_MOTION":15.34345765,"ECCENTRICITY":0.01743731,"INCLINATION":49.9895,"RA_OF_ASC_NODE":13.5528,"ARG_OF_PERICENTER":275.7155,"MEAN_ANOMALY":82.3946,"EPHEMERIS_TYPE":0,"CLASSIFICATION_TYPE":"U","NORAD_CAT_ID":67690,"ELEMENT_SET_NO":999,"REV_AT_EPOCH":472,"BSTAR":0.00037009281,"MEAN_MOTION_DOT":0.00020274,"MEAN_MOTION_DDOT":0}]
